{"type": "FeatureCollection", "features": [ {"type": "Feature", "properties": {"norad_id": 35797, "name": "IRIDIUM 33 DEB", "group": "iridium-33-debris", "lat": -74.29869287510532, "lon": 156.3741759371683, "alt_km": 636.3027969717623, "timestamp": "2025-12-27T11:23:20.286821+00:00", "meta": {"OBJECT_NAME": "IRIDIUM 33 DEB", "OBJECT_ID": "1997-051SF", "EPOCH": "2025-12-25T04:48:32.062176", "MEAN_MOTION": 14.83087004, "ECCENTRICITY": 0.0015142, "INCLINATION": 86.3371, "RA_OF_ASC_NODE": 324.2466, "ARG_OF_PERICENTER": 108.6966, "MEAN_ANOMALY": 251.5901, "EPHEMERIS_TYPE": 0, "CLASSIFICATION_TYPE": "U", "NORAD_CAT_ID": 35797, "ELEMENT_SET_NO": 999, "REV_AT_EPOCH": 87525, "BSTAR": 0.0019466, "MEAN_MOTION_DOT": 0.00015924, "MEAN_MOTION_DDOT": 0}, "tle": {"line1": "1 35797U 97051SF  25359.20037109  .00015924  00000+0  19466-2 0  9997", "line2": "2 35797  86.3371 324.2466 0015142 108.6966 251.5901 14.83087004875252"}}, "geometry": {"type": "Point", "coordinates": [156.3741759371683, -74.29869287510532]}}, {"type": "Feature", "properties": {"norad_id": 35806, "name": "IRIDIUM 33 DEB", "group": "iridium-33-debris", "lat": -71.99239511105375, "lon": 2.7960725248820397, "alt_km": 710.9198927295338, "timestamp": "2025-12-27T11:23:20.286831+00:00", "meta": {"OBJECT_NAME": "IRIDIUM 33 DEB", "OBJECT_ID": "1997-051SQ", "EPOCH": "2025-12-25T18:31:35.635008", "MEAN_MOTION": 14.5746677, "ECCENTRICITY": 0.00150433, "INCLINATION": 86.344, "RA_OF_ASC_NODE": 14.8893, "ARG_OF_PERICENTER": 35.5825, "MEAN_ANOMALY": 324.6384, "EPHEMERIS_TYPE": 0, "CLASSIFICATION_TYPE": "U", "NORAD_CAT_ID": 35806, "ELEMENT_SET_NO": 999, "REV_AT_EPOCH": 86514, "BSTAR": 0.0012174975, "MEAN_MOTION_DOT": 5.557e-05, "MEAN_MOTION_DDOT": 0}, "tle": {"line1": "1 35806U 97051SQ  25359.77194022  .00005557  00000+0  12175-2 0  9999", "line2": "2 35806  86.3440  14.8893 0015043  35.5825 324.6384 14.57466770865144"}}, "geometry": {"type": "Point", "coordinates": [2.7960725248820397, -71.99239511105375]}}, {"type": "Feature", "properties": {"norad_id": 35809, "name": "IRIDIUM 33 DEB", "group": "iridium-33-debris", "lat": -8.733469120867962, "lon": 149.20234596779628, "alt_km": 639.0137628307639, "timestamp": "2025-12-27T11:23:20.286841+00:00", "meta": {"OBJECT_NAME": "IRIDIUM 33 DEB", "OBJECT_ID": "1997-051ST", "EPOCH": "2025-12-21T16:13:39.380736", "MEAN_MOTION": 14.75870585, "ECCENTRICITY": 0.00102664, "INCLINATION": 86.3279, "RA_OF_ASC_NODE": 331.2775, "ARG_OF_PERICENTER": 205.8578, "MEAN_ANOMALY": 154.2129, "EPHEMERIS_TYPE": 0, "CLASSIFICATION_TYPE": "U", "NORAD_CAT_ID": 35809, "ELEMENT_SET_NO": 999, "REV_AT_EPOCH": 86939, "BSTAR": 0.0013721853, "MEAN_MOTION_DOT": 9.452e-05, "MEAN_MOTION_DDOT": 0}, "tle": {"line1": "1 35809U 97051ST  25355.67615024  .00009452  00000+0  13722-2 0  9994", "line2": "2 35809  86.3279 331.2775 0010266 205.8578 154.2129 14.75870585869399"}}, "geometry": {"type": "Point", "coordinates": [149.20234596779628, -8.733469120867962]}}, {"type": "Feature", "properties": {"norad_id": 35846, "name": "IRIDIUM 33 DEB", "group": "iridium-33-debris", "lat": 39.49780448165684, "lon": 55.54835000990193, "alt_km": 743.5813862691948, "timestamp": "2025-12-27T11:23:20.286851+00:00", "meta": {"OBJECT_NAME": "IRIDIUM 33 DEB", "OBJECT_ID": "1997-051SW", "EPOCH": "2025-12-24T21:38:12.688800", "MEAN_MOTION": 14.43199531, "ECCENTRICITY": 0.0019834, "INCLINATION": 86.3738, "RA_OF_ASC_NODE": 53.6502, "ARG_OF_PERICENTER": 132.6503, "MEAN_ANOMALY": 227.6373, "EPHEMERIS_TYPE": 0, "CLASSIFICATION_TYPE": "U", "NORAD_CAT_ID": 35846, "ELEMENT_SET_NO": 999, "REV_AT_EPOCH": 71504, "BSTAR": 0.00052874, "MEAN_MOTION_DOT": 1.8e-05, "MEAN_MOTION_DDOT": 0}, "tle": {"line1": "1 35846U 97051SW  25358.90153575  .00001800  00000+0  52874-3 0  9993", "line2": "2 35846  86.3738  53.6502 0019834 132.6503 227.6373 14.43199531715046"}}, "geometry": {"type": "Point", "coordinates": [55.54835000990193, 39.49780448165684]}}, {"type": "Feature", "properties": {"norad_id": 35848, "name": "IRIDIUM 33 DEB", "group": "iridium-33-debris", "lat": -62.87324877979826, "lon": 2.416886190908327, "alt_km": 646.0114292348671, "timestamp": "2025-12-27T11:23:20.286862+00:00", "meta": {"OBJECT_NAME": "IRIDIUM 33 DEB", "OBJECT_ID": "1997-051SY", "EPOCH": "2025-12-25T19:04:39.531072", "MEAN_MOTION": 14.78906992, "ECCENTRICITY": 0.00094239, "INCLINATION": 86.3901, "RA_OF_ASC_NODE": 10.2507, "ARG_OF_PERICENTER": 146.078, "MEAN_ANOMALY": 214.1045, "EPHEMERIS_TYPE": 0, "CLASSIFICATION_TYPE": "U", "NORAD_CAT_ID": 35848, "ELEMENT_SET_NO": 999, "REV_AT_EPOCH": 66883, "BSTAR": 0.0016240554, "MEAN_MOTION_DOT": 0.0001201, "MEAN_MOTION_DDOT": 0}, "tle": {"line1": "1 35848U 97051SY  25359.79490198  .00012010  00000+0  16241-2 0  9990", "line2": "2 35848  86.3901  10.2507 0009423 146.0780 214.1045 14.78906992668839"}}, "geometry": {"type": "Point", "coordinates": [2.416886190908327, -62.87324877979826]}}, {"type": "Feature", "properties": {"norad_id": 35850, "name": "IRIDIUM 33 DEB", "group": "iridium-33-debris", "lat": -85.64879521769173, "lon": -79.48391040215161, "alt_km": 645.1974663808187, "timestamp": "2025-12-27T11:23:20.286872+00:00", "meta": {"OBJECT_NAME": "IRIDIUM 33 DEB", "OBJECT_ID": "1997-051TA", "EPOCH": "2025-12-23T16:51:33.482304", "MEAN_MOTION": 14.79050016, "ECCENTRICITY": 0.00107739, "INCLINATION": 86.3501, "RA_OF_ASC_NODE": 339.2572, "ARG_OF_PERICENTER": 146.4147, "MEAN_ANOMALY": 213.7758, "EPHEMERIS_TYPE": 0, "CLASSIFICATION_TYPE": "U", "NORAD_CAT_ID": 35850, "ELEMENT_SET_NO": 999, "REV_AT_EPOCH": 71519, "BSTAR": 0.001670653, "MEAN_MOTION_DOT": 0.00012399, "MEAN_MOTION_DDOT": 0}, "tle": {"line1": "1 35850U 97051TA  25357.70247086  .00012399  00000+0  16707-2 0  9995", "line2": "2 35850  86.3501 339.2572 0010773 146.4147 213.7758 14.79050016715191"}}, "geometry": {"type": "Point", "coordinates": [-79.48391040215161, -85.64879521769173]}}, {"type": "Feature", "properties": {"norad_id": 35915, "name": "IRIDIUM 33 DEB", "group": "iridium-33-debris", "lat": -45.419587733852524, "lon": -27.49614278383946, "alt_km": 641.2942105253987, "timestamp": "2025-12-27T11:23:20.286882+00:00", "meta": {"OBJECT_NAME": "IRIDIUM 33 DEB", "OBJECT_ID": "1997-051TY", "EPOCH": "2025-12-22T16:27:49.238784", "MEAN_MOTION": 14.80964903, "ECCENTRICITY": 0.00122455, "INCLINATION": 86.3447, "RA_OF_ASC_NODE": 338.4114, "ARG_OF_PERICENTER": 150.5648, "MEAN_ANOMALY": 209.6266, "EPHEMERIS_TYPE": 0, "CLASSIFICATION_TYPE": "U", "NORAD_CAT_ID": 35915, "ELEMENT_SET_NO": 999, "REV_AT_EPOCH": 8233, "BSTAR": 0.0017914035, "MEAN_MOTION_DOT": 0.00013917, "MEAN_MOTION_DDOT": 0}, "tle": {"line1": "1 35915U 97051TY  25356.68598656  .00013917  00000+0  17914-2 0  9993", "line2": "2 35915  86.3447 338.4114 0012245 150.5648 209.6266 14.80964903 82335"}}, "geometry": {"type": "Point", "coordinates": [-27.49614278383946, -45.419587733852524]}}, {"type": "Feature", "properties": {"norad_id": 35918, "name": "IRIDIUM 33 DEB", "group": "iridium-33-debris", "lat": -19.117012960369845, "lon": 68.23978900608803, "alt_km": 742.2554062637209, "timestamp": "2025-12-27T11:23:20.286894+00:00", "meta": {"OBJECT_NAME": "IRIDIUM 33 DEB", "OBJECT_ID": "1997-051UB", "EPOCH": "2025-12-26T22:48:48.276864", "MEAN_MOTION": 14.51362633, "ECCENTRICITY": 0.002855, "INCLINATION": 86.3998, "RA_OF_ASC_NODE": 69.7152, "ARG_OF_PERICENTER": 124.3713, "MEAN_ANOMALY": 0.7922, "EPHEMERIS_TYPE": 0, "CLASSIFICATION_TYPE": "U", "NORAD_CAT_ID": 35918, "ELEMENT_SET_NO": 999, "REV_AT_EPOCH": 85413, "BSTAR": 0.0012105, "MEAN_MOTION_DOT": 4.869e-05, "MEAN_MOTION_DDOT": 0}, "tle": {"line1": "1 35918U 97051UB  25360.95055876  .00004869  00000+0  12105-2 0  9996", "line2": "2 35918  86.3998  69.7152 0028550 124.3713   0.7922 14.51362633854137"}}, "geometry": {"type": "Point", "coordinates": [68.23978900608803, -19.117012960369845]}}, {"type": "Feature", "properties": {"norad_id": 35929, "name": "IRIDIUM 33 DEB", "group": "iridium-33-debris", "lat": -55.481137238525776, "lon": -59.70551676464323, "alt_km": 555.8215818677481, "timestamp": "2025-12-27T11:23:20.286904+00:00", "meta": {"OBJECT_NAME": "IRIDIUM 33 DEB", "OBJECT_ID": "1997-051UN", "EPOCH": "2025-12-23T14:58:27.135552", "MEAN_MOTION": 15.03115552, "ECCENTRICITY": 0.00156026, "INCLINATION": 86.3353, "RA_OF_ASC_NODE": 307.468, "ARG_OF_PERICENTER": 2.5785, "MEAN_ANOMALY": 357.5526, "EPHEMERIS_TYPE": 0, "CLASSIFICATION_TYPE": "U", "NORAD_CAT_ID": 35929, "ELEMENT_SET_NO": 999, "REV_AT_EPOCH": 87943, "BSTAR": 0.0026490117, "MEAN_MOTION_DOT": 0.00035991, "MEAN_MOTION_DDOT": 0}, "tle": {"line1": "1 35929U 97051UN  25357.62392518  .00035991  00000+0  26490-2 0  9997", "line2": "2 35929  86.3353 307.4680 0015602   2.5785 357.5526 15.03115552879439"}}, "geometry": {"type": "Point", "coordinates": [-59.70551676464323, -55.481137238525776]}}, {"type": "Feature", "properties": {"norad_id": 36011, "name": "IRIDIUM 33 DEB", "group": "iridium-33-debris", "lat": -44.300068402811, "lon": -147.32350088805774, "alt_km": 753.440941439434, "timestamp": "2025-12-27T11:23:20.286914+00:00", "meta": {"OBJECT_NAME": "IRIDIUM 33 DEB", "OBJECT_ID": "1997-051US", "EPOCH": "2025-12-25T08:37:37.153056", "MEAN_MOTION": 14.41365218, "ECCENTRICITY": 0.0018984, "INCLINATION": 86.3401, "RA_OF_ASC_NODE": 30.0038, "ARG_OF_PERICENTER": 173.897, "MEAN_ANOMALY": 242.215, "EPHEMERIS_TYPE": 0, "CLASSIFICATION_TYPE": "U", "NORAD_CAT_ID": 36011, "ELEMENT_SET_NO": 999, "REV_AT_EPOCH": 64722, "BSTAR": 0.00042764, "MEAN_MOTION_DOT": 1.406e-05, "MEAN_MOTION_DDOT": 0}, "tle": {"line1": "1 36011U 97051US  25359.35945779  .00001406  00000+0  42764-3 0  9992", "line2": "2 36011  86.3401  30.0038 0018984 173.8970 242.2150 14.41365218647226"}}, "geometry": {"type": "Point", "coordinates": [-147.32350088805774, -44.300068402811]}}]}